GLOBALSTAR M057         
1 25943U 99058A   25280.81213262 -.00000094  00000+0 -13634-4 0  9991
2 25943  52.0009  28.5714 0002180 231.6991 128.3663 12.24827352180734
GLOBALSTAR M059         
1 25944U 99058B   25280.56110323 -.00000097  00000+0 -13528-3 0  9992
2 25944  52.0010 263.1647 0000287  97.1018  48.2386 11.99988400587534
GLOBALSTAR M056         
1 25945U 99058C   25280.53067583 -.00000051  00000+0  42381-3 0  9997
2 25945  51.9950 262.3258 0001252  44.2264 113.7630 12.04779245176169
GLOBALSTAR M031         
1 25946U 99058D   25280.86642774  .00000045  00000+0  13776-2 0  9992
2 25946  51.9941 146.9895 0002255  59.6589  49.4970 12.16041281178257
GLOBALSTAR M039         
1 25961U 99062A   25280.44217201 -.00000088  00000+0  90324-4 0  9995
2 25961  51.9842 286.8087 0002350 234.2932 125.7716 12.62333294194398
GLOBALSTAR M034         
1 25962U 99062B   25280.85819803 -.00000074  00000+0  10133-3 0  9991
2 25962  51.9864  78.5036 0013270 252.7613 276.2549 11.79449033151684
GLOBALSTAR M029         
1 25963U 99062C   25280.72069012 -.00000049  00000+0  46271-3 0  9991
2 25963  51.9782 150.6720 0002653   0.8863  41.1999 11.99901812182635
GLOBALSTAR M061         
1 25964U 99062D   25280.43754854 -.00000084  00000+0 -58148-4 0  9992
2 25964  51.9781 265.1264 0005713 174.1002 348.3353 11.76777179134398
